TRANSPORTER-12 OBJECT AZ
1 62656U 25009AZ  26068.71026235  .00016057  00000+0  54903-3 0  9991
2 62656  97.3981 151.9913 0000987  45.3581 314.7740 15.30349724 63792
STARLINK-32875          
1 62951U 25029D   26068.78497170  .00039502  00000+0  13405-2 0  9999
2 62951  53.1593 229.7829 0001248  75.4058 284.7081 15.30158605 61375
